STARLINK-1262
1 45366U 20019G   26090.62963015  .00000384  00000+0  25661-4 0  9993
2 45366  53.1574  63.3251 0001892  95.9342 264.1874 15.29363042333111
STARLINK-1335
1 45581U 20025BC  26090.39939974 -.00000132  00000+0  77816-5 0  9992
2 45581  53.1583 334.3308 0001576 100.9767 259.1411 15.29349768328856
STARLINK-1392
1 45677U 20035W   26090.87613126 -.00000127  00000+0  79494-5 0  9998
2 45677  53.1528 321.8314 0001406  93.4031 266.7130 15.29347370322157
STARLINK-1403
1 45701U 20035AW  26090.88391508 -.00002074  00000+0 -59574-4 0  9994
2 45701  53.1562 293.5504 0001293  78.5904 281.5242 15.29339907322545
STARLINK-1526
1 46029U 20055C   26090.52385763  .00002984  00000+0  11571-3 0  9999
2 46029  53.1562  25.2639 0002233  78.9169 281.2083 15.29359156312233
STARLINK-1556
1 46033U 20055G   26090.09483285  .00020857  00000+0  73223-3 0  9995
2 46033  53.1589  27.2105 0001097  83.7945 276.3180 15.29394231312146
STARLINK-1557
1 46034U 20055H   26090.80745157 -.00002468  00000+0 -73186-4 0  9993
2 46034  53.1586  23.8070 0002222  74.8774 285.2472 15.29352406312252
STARLINK-1560
1 46036U 20055K   26090.54281230  .00001404  00000+0  60969-4 0  9995
2 46036  53.1594  25.0721 0001649  98.1174 262.0014 15.29372362312242
STARLINK-2076
1 47362U 21005P   26090.06512428  .00017463  00000+0  61553-3 0  9998
2 47362  53.1550 323.0630 0000890  89.5839 270.5263 15.29384078286300
STARLINK-2094
1 47375U 21005AC  26090.02438887  .00011926  00000+0  42474-3 0  9993
2 47375  53.1553 323.3161 0001275  82.6888 277.4257 15.29373406286295
STARLINK-2101
1 47381U 21005AJ  26090.27469999  .00003343  00000+0  12807-3 0  9996
2 47381  53.1539 296.8001 0001022  93.4937 266.6180 15.29367995286693
STARLINK-2377
1 47797U 21018L   26090.36446763 -.00000126  00000+0  79729-5 0  9990
2 47797  53.1543 154.4888 0001647  86.1581 273.9608 15.29344536279861
STARLINK-2383
1 47802U 21018R   26090.44573721 -.00001361  00000+0 -34858-4 0  9997
2 47802  53.1587 154.1997 0001321  86.4490 273.6662 15.29346350279880
STARLINK-2413
1 47827U 21018AS  26090.51010878  .00012444  00000+0  44267-3 0  9997
2 47827  53.1551 140.9151 0001593  90.0214 270.0969 15.29369361280126
STARLINK-2435
1 47843U 21018BJ  26090.44415337  .00000840  00000+0  41445-4 0  9999
2 47843  53.1582 154.2264 0002007  88.6274 271.4957 15.29359536279898
STARLINK-2343
1 47884U 21021AA  26090.50101720  .00003637  00000+0  13828-3 0  9993
2 47884  53.1603 179.6833 0002066  78.1951 281.9281 15.29366468279394
STARLINK-2367
1 47907U 21021AZ  26090.50447646 -.00002937  00000+0 -89495-4 0  9997
2 47907  53.1586 179.5563 0001247  81.7668 278.3474 15.29351022279365
STARLINK-2442
1 48106U 21027Q   26090.59862831  .00006303  00000+0  23048-3 0  9991
2 48106  53.1550  50.4630 0001301  72.5516 287.5626 15.29370923276045
STARLINK-2455
1 48117U 21027AB  26090.16725536 -.00000209  00000+0  51052-5 0  9994
2 48117  53.1574  52.7092 0001452 104.7516 255.3646 15.29333439275972
STARLINK-2467
1 48126U 21027AL  26090.58419108  .00006727  00000+0  24514-3 0  9996
2 48126  53.1552  50.7716 0001162  89.2167 270.8966 15.29370504276046
STARLINK-2482
1 48139U 21027AZ  26090.21186749  .00013812  00000+0  48985-3 0  9993
2 48139  53.1581  52.4783 0001196  89.3043 270.8094 15.29372006275989
STARLINK-2485
1 48142U 21027BC  26090.17345658  .00011699  00000+0  41675-3 0  9998
2 48142  53.1563  52.9619 0001153  99.3000 260.8131 15.29383795275970
STARLINK-2487
1 48144U 21027BE  26090.14306941  .00017536  00000+0  61832-3 0  9992
2 48144  53.1569  52.7277 0001262  91.4243 268.6902 15.29370176275969
STARLINK-2536
1 48310U 21036AL  26090.00023539  .00017056  00000+0  60154-3 0  9994
2 48310  53.1618 352.1355 0001063 103.6554 256.4564 15.29382873271448
STARLINK-2029
1 48320U 21036AW  26090.45256871  .00003257  00000+0  12513-3 0  9995
2 48320  53.1546   0.3821 0001294  76.2282 283.8862 15.29356996271361
STARLINK-2502
1 48327U 21036BD  26090.89560350 -.00003462  00000+0 -10775-3 0  9998
2 48327  53.1572 357.7875 0001608 114.5009 245.6159 15.29342673271448
STARLINK-2510
1 48329U 21036BF  26090.89268870  .00006586  00000+0  24033-3 0  9992
2 48329  53.1555 357.8418 0000985  98.2857 261.8255 15.29358626271443
STARLINK-2501
1 48330U 21036BG  26090.87793152 -.00001023  00000+0 -23139-4 0  9998
2 48330  53.1583 357.7998 0001037  98.0035 262.1083 15.29350445271447
STARLINK-2514
1 48331U 21036BH  26090.48193786  .00004614  00000+0  17212-3 0  9994
2 48331  53.1576 359.6327 0001249  86.2749 273.8394 15.29356667271382
STARLINK-2518
1 48333U 21036BK  26090.88001090  .00001657  00000+0  69749-4 0  9993
2 48333  53.1569 357.9168 0001735  93.3136 266.8063 15.29352221271443
STARLINK-2470
1 48334U 21036BL  26090.15847629  .00012890  00000+0  45779-3 0  9997
2 48334  53.1564   1.2766 0001179  93.9904 266.1231 15.29389561271338
STARLINK-2563
1 48410U 21038BK  26090.58742802  .00002802  00000+0  10940-3 0  9992
2 48410  53.1548 194.5218 0001196  92.2056 267.9081 15.29353209271301
STARLINK-2700
1 48431U 21040D   26090.61815769 -.00004657  00000+0 -14911-3 0  9999
2 48431  53.1587  50.4176 0001398  95.0193 265.0967 15.29366093270392
STARLINK-2699
1 48433U 21040F   26090.59271111  .00004616  00000+0  17213-3 0  9996
2 48433  53.1553  50.6247 0001969  84.4360 275.6865 15.29367929270382
STARLINK-2633
1 48435U 21040H   26090.83626895 -.00004252  00000+0 -13512-3 0  9994
2 48435  53.1561  62.3725 0001198  93.2135 266.9002 15.29348368270243
STARLINK-2686
1 48464U 21040AN  26090.70337685  .00002324  00000+0  92861-4 0  9999
2 48464  53.1554  88.6151 0001672  81.3622 278.7567 15.29355417269874
STARLINK-2697
1 48474U 21040AY  26090.71946664  .00005837  00000+0  21435-3 0  9994
2 48474  53.1576  88.7747 0000786  65.4166 294.6917 15.29367727269864
STARLINK-2728
1 48478U 21040BC  26090.68795994 -.00000275  00000+0  27970-5 0  9996
2 48478  53.1528  88.8219 0000972  93.7571 266.3541 15.29347030269865
STARLINK-2755
1 48479U 21040BD  26090.40899743  .00038622  00000+0  13421-2 0  9993
2 48479  53.1558  89.9795 0001447  89.2851 270.8315 15.29396140269820
STARLINK-2714
1 48603U 21041BC  26090.83335647  .00022365  00000+0  78559-3 0  9999
2 48603  53.1559  10.9349 0001272  93.6449  77.2886 15.29333012  5725
STARLINK-2726
1 48662U 21044AA  26090.83335647  .00017848  00000+0  62981-3 0  9999
2 48662  53.1563  10.7451 0001466 107.3846 103.0032 15.29330957  5777
STARLINK-2735
1 48667U 21044AF  26090.83335647  .00019569  00000+0  68918-3 0  9992
2 48667  53.1569  10.7477 0001661  94.7370 173.8675 15.29333309  5822
STARLINK-2711
1 48673U 21044AM  26090.83335647  .00012843  00000+0  45686-3 0  9994
2 48673  53.1568  10.7643 0001536 101.4758 277.4106 15.29339798  5817
STARLINK-2648
1 48679U 21044AT  26090.83335647  .00014559  00000+0  51598-3 0  9995
2 48679  53.1554  10.7697 0001585 107.1904  29.3307 15.29349434  5823
STARLINK-2629
1 48686U 21044BA  26090.87806861  .00007612  00000+0  27580-3 0  9994
2 48686  53.1561 332.1668 0001286  80.7511 279.3635 15.29362983267753
STARLINK-3704
1 51959U 22025D   26089.99529104  .00000610  00000+0  33477-4 0  9998
2 51959  53.1573 297.8268 0001310  90.8293 269.2857 15.29366458224098
STARLINK-35085
1 65419U 25192R   26090.50772826  .00032119  00000+0  11200-2 0  9999
2 65419  53.1610 130.3743 0001095  78.2733 281.8390 15.29371941 32737
